{
    "links": {
        "self": "http://www.neowsapp.com/rest/v1/neo/3740927?api_key=iIulBulltgU6a56xZRHN4H3l9WmuAYTsLGpBGhQ2"
    },
    "id": "3740927",
    "neo_reference_id": "3740927",
    "name": "(2016 BY14)",
    "designation": "2016 BY14",
    "nasa_jpl_url": "http://ssd.jpl.nasa.gov/sbdb.cgi?sstr=3740927",
    "absolute_magnitude_h": 23.9,
    "estimated_diameter": {
        "kilometers": {
            "estimated_diameter_min": 0.04411182,
            "estimated_diameter_max": 0.0986370281
        },
        "meters": {
            "estimated_diameter_min": 44.1118199997,
            "estimated_diameter_max": 98.6370281305
        },
        "miles": {
            "estimated_diameter_min": 0.0274098057,
            "estimated_diameter_max": 0.0612901888
        },
        "feet": {
            "estimated_diameter_min": 144.7238235278,
            "estimated_diameter_max": 323.6123073718
        }
    },
    "is_potentially_hazardous_asteroid": false,
    "close_approach_data": [
        {
            "close_approach_date": "2015-12-02",
            "close_approach_date_full": "2015-Dec-02 23:31",
            "epoch_date_close_approach": 1449099060000,
            "relative_velocity": {
                "kilometers_per_second": "36.0431101539",
                "kilometers_per_hour": "129755.1965538956",
                "miles_per_hour": "80624.8331031692"
            },
            "miss_distance": {
                "astronomical": "0.0912999867",
                "lunar": "35.5156948263",
                "kilometers": "13658283.541348329",
                "miles": "8486863.8514877802"
            },
            "orbiting_body": "Merc"
        },
        {
            "close_approach_date": "2016-01-22",
            "close_approach_date_full": "2016-Jan-22 03:04",
            "epoch_date_close_approach": 1453431840000,
            "relative_velocity": {
                "kilometers_per_second": "32.5248458195",
                "kilometers_per_hour": "117089.4449502101",
                "miles_per_hour": "72754.8276136458"
            },
            "miss_distance": {
                "astronomical": "0.043496948",
                "lunar": "16.920312772",
                "kilometers": "6507050.77230076",
                "miles": "4043293.859880088"
            },
            "orbiting_body": "Earth"
        }
    ],
    "orbital_data": {
        "orbit_id": "5",
        "orbit_determination_date": "2017-04-06 08:28:53",
        "first_observation_date": "2016-01-28",
        "last_observation_date": "2016-02-05",
        "data_arc_in_days": 8,
        "observations_used": 52,
        "orbit_uncertainty": "8",
        "minimum_orbit_intersection": ".00067436",
        "jupiter_tisserand_invariant": "2.499",
        "epoch_osculation": "2457417.5",
        "eccentricity": ".9073564913198157",
        "semi_major_axis": "2.730623677344906",
        "inclination": "13.15878184783525",
        "ascending_node_longitude": "123.4245413922633",
        "orbital_period": "1648.129012284463",
        "perihelion_distance": ".2529745583544196",
        "perihelion_argument": "235.6378833978119",
        "aphelion_distance": "5.208272796335391",
        "perihelion_time": "2457370.942521376488",
        "mean_anomaly": "10.16952688748098",
        "mean_motion": ".2184295023731219",
        "equinox": "J2000",
        "orbit_class": {
            "orbit_class_type": "APO",
            "orbit_class_description": "Near-Earth asteroid orbits which cross the Earth’s orbit similar to that of 1862 Apollo",
            "orbit_class_range": "a (semi-major axis) > 1.0 AU; q (perihelion) < 1.017 AU"
        }
    },
    "is_sentry_object": false
}